ADMN76 KWBC 031602
031600
TAF SAVC 031600Z 031818 25025G35KT 9999 SCT030 SCT090 TEMPO 27020G30KT BECMG 2124 27020G30KT BECMG 0912 27030G40KT=


