ADMN76 KWBC 031602
031600
TAF SAVC 031600Z 031818 25025G35KT 9999 SCT030 SCT090 TEMPO
27020G30KT BECMG 2124 27020G30KT BECMG 0912 27030G40KT=
TAF SAWG 031600Z 031818 25030G40KT 9999 BKN020 TEMPO -SHRA BECMG 1821
 25025G40KT 9999 -SHRA BKN020 BECMG 0912 27035G50KT=
TAF SAWE 031600Z 031818 25030G40KT 9999 BKN020 TEMPO -SHRA BECMG 1821
 25025G40KT 9999 -SHRA BKN020 BECMG 0912 27035G50KT NSW SCT020
SCT090=
TAF SAWH 031600Z 031818 25030G40KT BECMG 0912 25035G50KT SCT020
OVC090 TEMPO -RA=

